#aV2020  7 21  0  0  0.00000000     288 DD+AD WGS84 FIT  NGA
## 2115 172800.00000000   300.00000000 59051 0.0000000000000
+   32     1  2  3  4  5  6  7  8  9 10 11 12 13 14 15 16 17
+         18 19 20 21 22 23 24 25 26 27 28 29 30 31 32  0  0
+          0  0  0  0  0  0  0  0  0  0  0  0  0  0  0  0  0
+          0  0  0  0  0  0  0  0  0  0  0  0  0  0  0  0  0
+          0  0  0  0  0  0  0  0  0  0  0  0  0  0  0  0  0
++         2  2  2  2  2  2  2  2  2  2  2  2  2  2  2  2  2
++         2  2  2  2  2  2  2  2  2  2  2  2  2  2  2  0  0
++         0  0  0  0  0  0  0  0  0  0  0  0  0  0  0  0  0
++         0  0  0  0  0  0  0  0  0  0  0  0  0  0  0  0  0
++         0  0  0  0  0  0  0  0  0  0  0  0  0  0  0  0  0
%c cc cc ccc ccc cccc cccc cccc cccc ccccc ccccc ccccc ccccc
%c cc cc ccc ccc cccc cccc cccc cccc ccccc ccccc ccccc ccccc
%f  0.0000000  0.000000000  0.00000000000  0.000000000000000
%f  0.0000000  0.000000000  0.00000000000  0.000000000000000
%i    0    0    0    0      0      0      0      0         0
%i    0    0    0    0      0      0      0      0         0
/*      NGA, ST. LOUIS,MO.                                  
/*   EPHEMERIS COMPUTED FROM 2 DAYS OF DATA                 
/*   EPOCHA v5 SMOOTHER                                     
/*   G1762 IERS2010 SATAF SATAPC                            
*  2020  7 21 16 15  0.00000000
P  1  20023.964016  11872.586303  12861.307397     27.661182                    
V  1   8828.331973  14090.610607 -25952.029978      0.034396                    
P  2 -12766.843106 -22217.002761   7711.202493   -490.596628                    
V  2   7857.946379   4938.079985  29674.990645     -0.056618                    
P  3  15308.189583   1807.577271  21548.816940   -246.532212                    
V  3  -9871.577782  25695.040884   4943.885261     -0.114778                    
P  4  26025.673313    915.430484   5324.729277   -115.162945                    
V  4  -6405.532707   3451.504420  30747.450268     -0.046089                    
P  5  -4761.109568 -20501.090137 -16227.382583    -17.126667                    
V  5   9001.193937 -18467.594930  21070.451554     -0.008004                    
P  6  -1751.175669 -20505.779860  16814.501470   -305.990162                    
V  6  14228.336923  15820.751529  20876.535863     -0.049351                    
P  7  14782.221986  -5414.546526 -21128.877596   -332.359529                    
V  7  16469.407357  22081.235726   5293.747376     -0.086582                    
P  8  20516.856978   7401.487902 -15324.044235    -41.738080                    
V  8 -18857.765125   4662.863271 -22727.600751     -0.013383                    
P  9  24569.543383  -8191.209868  -5978.530535   -257.395785                    
V  9   7899.997853   1728.150038  30335.277761     -0.063922                    
P 10 -11549.252858  23589.705773  -2845.492806   -405.899715                    
V 10  -1236.161557  -4526.433532 -31769.315468     -0.106037                    
P 11  23363.591946  12199.928214  -1548.337661   -214.865371                    
V 11  -3238.357097   3552.541908 -30783.305093      0.106121                    
P 12 -14698.742012  -3130.089319  21651.246697     90.839710                    
V 12  11908.455980 -25366.726856   4515.015444     -0.049079                    
P 13 -12741.614865 -13180.117621 -19374.730354     28.719213                    
V 13  24277.632304  -1461.298457 -14964.462099      0.033350                    
P 14  -3029.349052  15425.869938  21742.676788      3.051421                    
V 14 -26780.482111   1146.564791  -4802.290234      0.028674                    
P 15 -21688.485558  -5904.731283 -14756.402986   -216.010830                    
V 15  16973.737651  -6816.222762 -22340.406488      0.025906                    
P 16   4583.430030  18480.740976 -18542.580182   -185.566718                    
V 16 -11820.601974  20032.462149  17677.343966     -0.048184                    
P 17  12507.830792 -13906.736569  19263.214003    299.284742                    
V 17  23526.086353   -988.801959 -16394.094830      0.057136                    
P 18 -14250.336606   5974.380827 -21618.978814    251.711653                    
V 18 -16078.431229 -22195.959469   4435.089605      0.091541                    
P 19   4620.222950 -14514.531811  21453.201249   -129.028937                    
V 19  27898.551987   -575.969773  -6356.296312      0.050548                    
P 20 -14961.796790  16737.157899 -14091.856486    527.245125                    
V 20   1616.914477 -18078.141096 -23547.252183     -0.000909                    
P 21   2050.534991  20043.147746 -16728.611054     26.372110                    
V 21 -16527.751468 -15506.238103 -19444.155447      0.045187                    
P 22  13167.736374  10167.834870  20934.565433   -770.424060                    
V 22  -8312.227277  24857.372239  -6764.501690      0.027693                    
P 23      0.000000      0.000000      0.000000 999999.999999                    
V 23      0.000000      0.000000      0.000000 999999.999999                    
P 24 -21204.485613 -12501.163310  10241.018223    -15.982519                    
V 24  -6588.406331 -11828.669662 -27171.357595     -0.005262                    
P 25 -17019.631271   8709.624663  18089.239694     25.867686                    
V 25   7246.044751 -22455.651519  17653.979972      0.043412                    
P 26  -3608.371088  25198.244384  -7193.938443    247.361685                    
V 26  -6196.520793   7505.671594  29758.229982      0.067667                    
P 27  10232.530631  12879.585910 -21070.849648   -351.495122                    
V 27 -25954.205760   4237.417246  -9757.894080     -0.095544                    
P 28  12403.143500 -23557.683422   -350.371603    697.414749                    
V 28   1421.575887   2019.006003 -32017.275457     -0.036585                    
P 29 -26278.273640   3367.716736  -2234.935692   -155.269845                    
V 29  -2908.308236  -1784.787333  32098.101206     -0.084242                    
P 30   6853.240295 -15713.025787 -20185.072875   -266.545988                    
V 30  16313.138807  20134.329656 -10327.047541     -0.076433                    
P 31   2417.081375  21342.752737  15274.848731    -57.054508                    
V 31 -13632.435649 -14380.148121  22633.864785     -0.024482                    
P 32 -10949.137683  15122.523669  18921.009085    320.599129                    
V 32 -23869.500796   2036.053039 -15657.046564      0.060252                    
EOF
